[{"OBJECT_NAME":"STARLINK-6248","OBJECT_ID":"2023-088AL","EPOCH":"2026-03-09T22:00:01.999584","MEAN_MOTION":15.09413307,"ECCENTRICITY":0.00025129,"INCLINATION":43.0011,"RA_OF_ASC_NODE":93.3611,"ARG_OF_PERICENTER":254.998,"MEAN_ANOMALY":58.6757,"EPHEMERIS_TYPE":0,"CLASSIFICATION_TYPE":"U","NORAD_CAT_ID":57082,"ELEMENT_SET_NO":999,"REV_AT_EPOCH":577,"BSTAR":0.005988875,"MEAN_MOTION_DOT":0.00098558,"MEAN_MOTION_DDOT":0},{"OBJECT_NAME":"YUNYAO-1 47","OBJECT_ID":"2025-059E","EPOCH":"2026-03-09T22:46:15.708288","MEAN_MOTION":15.10508558,"ECCENTRICITY":0.00172664,"INCLINATION":97.6066,"RA_OF_ASC_NODE":250.9227,"ARG_OF_PERICENTER":135.6694,"MEAN_ANOMALY":224.5922,"EPHEMERIS_TYPE":0,"CLASSIFICATION_TYPE":"U","NORAD_CAT_ID":63348,"ELEMENT_SET_NO":999,"REV_AT_EPOCH":5331,"BSTAR":0.00029014568,"MEAN_MOTION_DOT":4.732e-5,"MEAN_MOTION_DDOT":0}]
